NORAD_CAT_ID,OBJECT_NAME,OBJECT_TYPE,EPOCH,MEAN_MOTION,ECCENTRICITY,INCLINATION,RA_OF_ASC_NODE,ARG_OF_PERICENTER,MEAN_ANOMALY,BSTAR,MEAN_MOTION_DOT,MEAN_MOTION_DDOT,TLE_LINE0,TLE_LINE1,TLE_LINE2,SEMIMAJOR_AXIS,PERIOD,APOGEE,PERIGEE,DECAYED
56454.0,STARLINK-5959,PAYLOAD,2023-08-07 18:02:50,14.98321106,0.0003647,69.9995,6.9701,268.2814,91.7928,4.1329e-05,4e-06,0.0,0 STARLINK-5959,1 56454U 23064G   23219.75197226  .00000400  00000-0  41329-4 0  9992,2 56454  69.9995   6.9701 0003647 268.2814  91.7928 14.98321106 14069,6950.22,96.108,574.62,569.551,0.0
56454.0,STARLINK-5959,PAYLOAD,2023-08-08 08:28:02,14.98326184,0.0003734,69.9996,5.4549,268.3274,91.7457,0.00021669,2.493e-05,0.0,0 STARLINK-5959,1 56454U 23064G   23220.35280703  .00002493  00000-0  21669-3 0  9991,2 56454  69.9996   5.4549 0003734 268.3274  91.7457 14.98326184 14150,6950.205,96.107,574.665,569.474,0.0
56454.0,STARLINK-5959,PAYLOAD,2023-08-08 16:28:42,14.98333196,0.000373,69.9997,4.6135,268.4754,91.5978,0.0002705,3.136e-05,0.0,0 STARLINK-5959,1 56454U 23064G   23220.68660135  .00003136  00000-0  27050-3 0  9993,2 56454  69.9997   4.6135 0003730 268.4754  91.5978 14.98333196 14206,6950.183,96.107,574.64,569.456,0.0
56454.0,STARLINK-5959,PAYLOAD,2023-08-09 16:30:43,14.9833419,0.0003629,69.9999,2.0885,268.2624,91.8119,6.4688e-05,6.79e-06,0.0,0 STARLINK-5959,1 56454U 23064G   23221.68800445  .00000679  00000-0  64688-4 0  9992,2 56454  69.9999   2.0885 0003629 268.2624  91.8119 14.98334190 14354,6950.18,96.107,574.567,569.523,0.0
56454.0,STARLINK-5959,PAYLOAD,2023-08-10 19:45:00,14.98338982,0.0003392,70.001,359.2286,265.3658,94.7114,-6.6065e-05,-8.81e-06,0.0,0 STARLINK-5959,1 56454U 23064G   23222.82292088 -.00000881  00000-0 -66065-4 0  9995,2 56454  70.0010 359.2286 0003392 265.3658  94.7114 14.98338982 14524,6950.165,96.106,574.388,569.673,0.0
56454.0,STARLINK-5959,PAYLOAD,2023-08-11 10:10:13,14.98330499,0.0003373,70.001,357.7137,267.601,92.4762,-1.3774e-05,-2.57e-06,0.0,0 STARLINK-5959,1 56454U 23064G   23223.42376252 -.00000257  00000-0 -13774-4 0  9994,2 56454  70.0010 357.7137 0003373 267.6010  92.4762 14.98330499 14617,6950.191,96.107,574.401,569.712,0.0
56454.0,STARLINK-5959,PAYLOAD,2023-08-12 10:12:14,14.9832741,0.0003466,70.0008,355.189,270.3175,89.7587,4.3347e-06,-4.1e-07,0.0,0 STARLINK-5959,1 56454U 23064G   23224.42516277 -.00000041  00000-0  43347-5 0  9998,2 56454  70.0008 355.1890 0003466 270.3175  89.7587 14.98327410 14767,6950.201,96.107,574.475,569.657,0.0
56454.0,STARLINK-5959,PAYLOAD,2023-08-13 18:14:55,14.98329175,0.0003631,70.0006,351.8218,270.9291,89.1452,-2.0034e-05,-3.32e-06,0.0,0 STARLINK-5959,1 56454U 23064G   23225.76036305 -.00000332  00000-0 -20034-4 0  9996,2 56454  70.0006 351.8218 0003631 270.9291  89.1452 14.98329175 14968,6950.195,96.107,574.584,569.537,0.0
56454.0,STARLINK-5959,PAYLOAD,2023-08-14 19:53:04,14.98306773,0.0003463,70.0002,349.127,270.3336,89.7426,0.00056814,6.689e-05,0.0,0 STARLINK-5959,1 56454U 23064G   23226.82852284  .00006689  00000-0  56814-3 0  9999,2 56454  70.0002 349.1270 0003463 270.3336  89.7426 14.98306773 15124,6950.265,96.108,574.537,569.723,0.0
56454.0,STARLINK-5959,PAYLOAD,2023-08-15 10:18:16,14.98328667,0.0003503,70.0007,347.612,271.4304,88.6453,5.6065e-05,5.76e-06,0.0,0 STARLINK-5959,1 56454U 23064G   23227.42936008  .00000576  00000-0  56065-4 0  9991,2 56454  70.0007 347.6120 0003503 271.4304  88.6453 14.98328667 15212,6950.197,96.107,574.497,569.627,0.0
56454.0,STARLINK-5959,PAYLOAD,2023-08-16 10:20:17,14.98326565,0.0003434,70.0007,345.088,269.9377,90.1389,2.5682e-05,2.13e-06,0.0,0 STARLINK-5959,1 56454U 23064G   23228.43076128  .00000213  00000-0  25682-4 0  9990,2 56454  70.0007 345.0880 0003434 269.9377  90.1389 14.98326565 15369,6950.204,96.107,574.455,569.682,0.0
56454.0,STARLINK-5959,PAYLOAD,2023-08-17 10:22:18,14.9833281,0.0003356,70.0007,342.5631,262.8808,97.197,-1.6092e-05,-2.85e-06,0.0,0 STARLINK-5959,1 56454U 23064G   23229.43215632 -.00000285  00000-0 -16092-4 0  9992,2 56454  70.0007 342.5631 0003356 262.8808  97.1970 14.98332810 15519,6950.184,96.107,574.382,569.717,0.0
56454.0,STARLINK-5959,PAYLOAD,2023-08-18 10:24:19,14.98324167,0.0003551,70.001,340.0397,270.6104,89.4649,-3.4805e-05,-5.08e-06,0.0,0 STARLINK-5959,1 56454U 23064G   23230.43356214 -.00000508  00000-0 -34805-4 0  9996,2 56454  70.0010 340.0397 0003551 270.6104  89.4649 14.98324167 15667,6950.211,96.107,574.544,569.608,0.0
56454.0,STARLINK-5959,PAYLOAD,2023-08-19 10:26:20,14.98330014,0.000363,70.0008,337.5147,270.0611,90.0132,-2.7832e-05,-4.25e-06,0.0,0 STARLINK-5959,1 56454U 23064G   23231.43495917 -.00000425  00000-0 -27832-4 0  9991,2 56454  70.0008 337.5147 0003630 270.0611  90.0132 14.98330014 15813,6950.193,96.107,574.581,569.535,0.0
56454.0,STARLINK-5959,PAYLOAD,2023-08-20 12:04:29,14.98329803,0.0003566,70.0006,334.8203,270.6064,89.4686,2.0886e-05,1.56e-06,0.0,0 STARLINK-5959,1 56454U 23064G   23232.50311813  .00000156  00000-0  20886-4 0  9993,2 56454  70.0006 334.8203 0003566 270.6064  89.4686 14.98329803 15977,6950.194,96.107,574.537,569.58,0.0
56454.0,STARLINK-5959,PAYLOAD,2023-08-21 12:06:30,14.98312946,0.0003396,70.0006,332.2952,267.9286,92.1484,0.00030387,3.533e-05,0.0,0 STARLINK-5959,1 56454U 23064G   23233.50451931  .00003533  00000-0  30387-3 0  9998,2 56454  70.0006 332.2952 0003396 267.9286  92.1484 14.98312946 16121,6950.246,96.108,574.471,569.75,0.0
56454.0,STARLINK-5959,PAYLOAD,2023-08-21 16:54:54,14.98331869,0.000351,70.0007,331.7904,269.5692,90.5065,1.8251e-05,1.25e-06,0.0,0 STARLINK-5959,1 56454U 23064G   23233.70479589  .00000125  00000-0  18251-4 0  9990,2 56454  70.0007 331.7904 0003510 269.5692  90.5065 14.98331869 16155,6950.187,96.107,574.492,569.613,0.0
56454.0,STARLINK-5959,PAYLOAD,2023-08-22 18:33:03,14.98335557,0.0003583,70.0003,329.0969,272.8909,87.184,2.156e-05,1.64e-06,0.0,0 STARLINK-5959,1 56454U 23064G   23234.77295180  .00000164  00000-0  21560-4 0  9991,2 56454  70.0003 329.0969 0003583 272.8909  87.1840 14.98335557 16319,6950.176,96.107,574.531,569.55,0.0
56454.0,STARLINK-5959,PAYLOAD,2023-08-23 12:10:32,14.98325956,0.0003427,70.0009,327.2458,274.3026,85.7741,-2.0766e-05,-3.41e-06,0.0,0 STARLINK-5959,1 56454U 23064G   23235.50731892 -.00000341  00000-0 -20766-4 0  9994,2 56454  70.0009 327.2458 0003427 274.3026  85.7741 14.98325956 16420,6950.205,96.107,574.452,569.689,0.0
56454.0,STARLINK-5959,PAYLOAD,2023-08-24 12:12:33,14.98328247,0.0003736,70.0,324.7207,271.2523,88.8208,-2.9575e-05,-4.46e-06,0.0,0 STARLINK-5959,1 56454U 23064G   23236.50871685 -.00000446  00000-0 -29575-4 0  9993,2 56454  70.0000 324.7207 0003736 271.2523  88.8208 14.98328247 16570,6950.198,96.107,574.66,569.467,0.0
56454.0,STARLINK-5959,PAYLOAD,2023-08-24 18:37:04,14.98332186,0.0003631,70.0,324.0467,269.8749,90.1994,3.588e-05,3.35e-06,0.0,0 STARLINK-5959,1 56454U 23064G   23236.77575222  .00000335  00000-0  35880-4 0  9991,2 56454  70.0000 324.0467 0003631 269.8749  90.1994 14.98332186 16258,6950.186,96.107,574.575,569.528,0.0
56454.0,STARLINK-5959,PAYLOAD,2023-08-25 13:50:41,14.98332725,0.000368,69.9999,322.027,267.2502,92.8236,4.4377e-05,4.36e-06,0.0,0 STARLINK-5959,1 56454U 23064G   23237.57687059  .00000436  00000-0  44377-4 0  9995,2 56454  69.9999 322.0270 0003680 267.2502  92.8236 14.98332725 16375,6950.184,96.107,574.607,569.492,0.0
56454.0,STARLINK-5959,PAYLOAD,2023-08-25 15:26:49,14.98333506,0.0003679,69.9999,321.8587,267.2244,92.8494,5.2018e-05,5.28e-06,0.0,0 STARLINK-5959,1 56454U 23064G   23237.64362975  .00000528  00000-0  52018-4 0  9993,2 56454  69.9999 321.8587 0003679 267.2244  92.8494 14.98333506 16749,6950.182,96.107,574.604,569.49,0.0
56454.0,STARLINK-5959,PAYLOAD,2023-08-26 10:40:26,14.98328127,0.0003646,69.9997,319.8387,266.9806,93.0936,-3.1502e-05,-4.69e-06,0.0,0 STARLINK-5959,1 56454U 23064G   23238.44475511 -.00000469  00000-0 -31502-4 0  9994,2 56454  69.9997 319.8387 0003646 266.9806  93.0936 14.98328127 16866,6950.199,96.107,574.598,569.53,0.0
56454.0,STARLINK-5959,PAYLOAD,2023-08-26 12:16:34,14.98328204,0.0003646,69.9997,319.6704,267.0051,93.0691,-2.9887e-05,-4.5e-06,0.0,0 STARLINK-5959,1 56454U 23064G   23238.51151506 -.00000450  00000-0 -29887-4 0  9990,2 56454  69.9997 319.6704 0003646 267.0051  93.0691 14.98328204 16517,6950.198,96.107,574.597,569.529,0.0
56454.0,STARLINK-5959,PAYLOAD,2023-08-26 15:28:50,14.98330151,0.0003647,69.9997,319.3338,267.4338,92.6403,-7.9714e-06,-1.88e-06,0.0,0 STARLINK-5959,1 56454U 23064G   23238.64503322 -.00000188  00000-0 -79714-5 0  9994,2 56454  69.9997 319.3338 0003647 267.4338  92.6403 14.98330151 16532,6950.192,96.107,574.592,569.523,0.0
56454.0,STARLINK-5959,PAYLOAD,2023-08-27 09:06:19,14.98332591,0.0003617,69.9997,317.4823,267.1466,92.9279,-8.6672e-06,-1.97e-06,0.0,0 STARLINK-5959,1 56454U 23064G   23239.37939099 -.00000197  00000-0 -86672-5 0  9990,2 56454  69.9997 317.4823 0003617 267.1466  92.9279 14.98332591 16642,6950.185,96.107,574.564,569.536,0.0
56454.0,STARLINK-5959,PAYLOAD,2023-08-27 15:30:51,14.98334688,0.0003598,69.9997,316.8092,267.0708,93.0039,1.7866e-05,1.2e-06,0.0,0 STARLINK-5959,1 56454U 23064G   23239.64642842  .00000120  00000-0  17866-4 0  9999,2 56454  69.9997 316.8092 0003598 267.0708  93.0039 14.98334688 17049,6950.178,96.107,574.544,569.543,0.0
56454.0,STARLINK-5959,PAYLOAD,2023-08-28 09:08:20,14.98324418,0.0003477,70.0,314.9578,268.5048,91.5712,-7.0848e-06,-1.78e-06,0.0,0 STARLINK-5959,1 56454U 23064G   23240.38079591 -.00000178  00000-0 -70848-5 0  9992,2 56454  70.0000 314.9578 0003477 268.5048  91.5712 14.98324418 17157,6950.21,96.107,574.492,569.659,0.0
56454.0,STARLINK-5959,PAYLOAD,2023-08-28 17:09:00,14.98329536,0.000361,69.9996,314.1159,272.0846,87.9899,2.8804e-05,2.51e-06,0.0,0 STARLINK-5959,1 56454U 23064G   23240.71459251  .00000251  00000-0  28804-4 0  9998,2 56454  69.9996 314.1159 0003610 272.0846  87.9899 14.98329536 16846,6950.194,96.107,574.568,569.55,0.0
